SMDC ONE 2.4            
1 39469U 13072H   26068.55980652  .00015821  00000+0  65974-3 0  9996
2 39469 120.4883 328.0945 0137633 267.6479  90.8828 15.15767863102719
WEINA 1A                
1 43169U 18011A   26068.00959261  .00003960  00000+0  31000-3 0  9992
2 43169  34.9964  50.6465 0003550 253.6699 106.3619 15.00525085443063
